{
  "norad_id": 67891,
  "name": "STARLINK-36816",
  "history": [
    {
      "epoch": "2026-03-28T22:00:01.999584Z",
      "apogee_km": 421.2275950673611,
      "perigee_km": 418.2113861424805,
      "latitude_deg": 36.79890948483666,
      "longitude_deg": 50.35016439556962,
      "height_km": 423.9523650005037,
      "semi_major_axis_km": 6797.8564906049205,
      "eccentricity": 0.00022185,
      "inclination_deg": 97.285,
      "raan_deg": 21.2318,
      "arg_perigee_deg": 90.4906,
      "mean_anomaly_deg": 52.4219,
      "mean_motion_rev_day": 15.48976304
    },
    {
      "epoch": "2026-03-29T04:00:01.999584Z",
      "apogee_km": 424.3329735003699,
      "perigee_km": 421.7430860490322,
      "latitude_deg": 80.86414897540544,
      "longitude_deg": 7.134653700717585,
      "height_km": 435.1793928324703,
      "semi_major_axis_km": 6801.175029774701,
      "eccentricity": 0.0001904,
      "inclination_deg": 97.2853,
      "raan_deg": 21.4835,
      "arg_perigee_deg": 95.8647,
      "mean_anomaly_deg": 359.7389,
      "mean_motion_rev_day": 15.4784274
    },
    {
      "epoch": "2026-03-30T04:00:01.999584Z",
      "apogee_km": 436.6081450859283,
      "perigee_km": 434.20023962854975,
      "latitude_deg": -75.08315499455507,
      "longitude_deg": -73.58788753845118,
      "height_km": 463.8535013334965,
      "semi_major_axis_km": 6813.541192357239,
      "eccentricity": 0.0001767,
      "inclination_deg": 97.2852,
      "raan_deg": 22.4878,
      "arg_perigee_deg": 94.5622,
      "mean_anomaly_deg": 162.2481,
      "mean_motion_rev_day": 15.43630792
    },
    {
      "epoch": "2026-03-30T06:00:02.000160Z",
      "apogee_km": 436.8993015949527,
      "perigee_km": 435.3288892874971,
      "latitude_deg": -0.6072875777292258,
      "longitude_deg": 104.99121537732907,
      "height_km": 439.3821370895238,
      "semi_major_axis_km": 6814.251095441225,
      "eccentricity": 0.00011523,
      "inclination_deg": 97.2853,
      "raan_deg": 22.5668,
      "arg_perigee_deg": 94.0338,
      "mean_anomaly_deg": 265.4959,
      "mean_motion_rev_day": 15.43389577
    },
    {
      "epoch": "2026-03-30T14:00:03.000384Z",
      "apogee_km": 441.45295538207574,
      "perigee_km": 439.0013443683465,
      "latitude_deg": 49.107165512938316,
      "longitude_deg": -23.525240371291762,
      "height_km": 446.9306373151071,
      "semi_major_axis_km": 6818.36414987521,
      "eccentricity": 0.00017978,
      "inclination_deg": 97.2854,
      "raan_deg": 22.9021,
      "arg_perigee_deg": 72.9089,
      "mean_anomaly_deg": 336.6416,
      "mean_motion_rev_day": 15.41993255
    },
    {
      "epoch": "2026-03-30T22:00:00.999936Z",
      "apogee_km": 445.55231388699485,
      "perigee_km": 443.2955471823925,
      "latitude_deg": 79.46841487081394,
      "longitude_deg": 88.0773641448406,
      "height_km": 456.74148294432996,
      "semi_major_axis_km": 6822.560930534693,
      "eccentricity": 0.00016539,
      "inclination_deg": 97.2856,
      "raan_deg": 23.2358,
      "arg_perigee_deg": 70.1503,
      "mean_anomaly_deg": 27.5363,
      "mean_motion_rev_day": 15.40570678
    },
    {
      "epoch": "2026-03-31T20:00:01.999008Z",
      "apogee_km": 456.6474991247878,
      "perigee_km": 452.9973322049391,
      "latitude_deg": 47.8374937662688,
      "longitude_deg": 83.00883717303732,
      "height_km": 460.91608883374454,
      "semi_major_axis_km": 6832.959415664863,
      "eccentricity": 0.0002671,
      "inclination_deg": 97.2861,
      "raan_deg": 24.1507,
      "arg_perigee_deg": 93.9743,
      "mean_anomaly_deg": 37.7566,
      "mean_motion_rev_day": 15.37055326
    },
    {
      "epoch": "2026-04-01T20:00:01.999008Z",
      "apogee_km": 464.013455422054,
      "perigee_km": 461.27167097312395,
      "latitude_deg": -72.64327863289664,
      "longitude_deg": 50.87146966612217,
      "height_km": 490.4472665072814,
      "semi_major_axis_km": 6840.779563197589,
      "eccentricity": 0.0002004,
      "inclination_deg": 97.3029,
      "raan_deg": 25.135,
      "arg_perigee_deg": 116.7134,
      "mean_anomaly_deg": 137.3344,
      "mean_motion_rev_day": 15.34420415
    },
    {
      "epoch": "2026-04-02T20:00:01.999008Z",
      "apogee_km": 466.7179117256528,
      "perigee_km": 464.73866588412966,
      "latitude_deg": 12.228444807805861,
      "longitude_deg": -106.6415009860775,
      "height_km": 467.815100378413,
      "semi_major_axis_km": 6843.865288804891,
      "eccentricity": 0.0001446,
      "inclination_deg": 97.2854,
      "raan_deg": 26.1221,
      "arg_perigee_deg": 87.1752,
      "mean_anomaly_deg": 285.2145,
      "mean_motion_rev_day": 15.33382785
    },
    {
      "epoch": "2026-04-02T22:00:01.999584Z",
      "apogee_km": 466.64675849206833,
      "perigee_km": 464.79330513071363,
      "latitude_deg": 66.86105371199756,
      "longitude_deg": 62.24488348485133,
      "height_km": 476.43383794909903,
      "semi_major_axis_km": 6843.857031811391,
      "eccentricity": 0.00013541,
      "inclination_deg": 97.2856,
      "raan_deg": 26.2032,
      "arg_perigee_deg": 92.646,
      "mean_anomaly_deg": 19.4641,
      "mean_motion_rev_day": 15.3338556
    },
    {
      "epoch": "2026-04-03T20:00:01.999008Z",
      "apogee_km": 466.76197171718195,
      "perigee_km": 464.54732074046206,
      "latitude_deg": 50.5635231666652,
      "longitude_deg": 83.82925362262483,
      "height_km": 473.14484131176465,
      "semi_major_axis_km": 6843.791646228821,
      "eccentricity": 0.0001618,
      "inclination_deg": 97.2856,
      "raan_deg": 27.107,
      "arg_perigee_deg": 75.9731,
      "mean_anomaly_deg": 52.985,
      "mean_motion_rev_day": 15.33407535
    }
  ]
}